#dP2022 10  8  0  0  0.00000000      96 __u+U ITR14 FIT  IAC
## 2230 518400.00000000   900.00000000 59860 0.0000000000000
+  129   C01C02C03C04C05C06C07C08C09C10C11C12C13C14C16C19C20
+        C21C22C23C24C25C26C27C28C29C30C32C33C34C35C36C37C38
+        C39C40C41C42C43C44C45C46C59C60E01E02E03E04E05E07E08
+        E09E10E11E12E13E14E15E18E19E21E24E25E26E27E30E31E33
+        E34E36G01G02G03G04G05G06G07G08G09G10G11G12G13G14G15
+        G16G17G18G19G20G21G22G23G24G25G26G27G28G29G30G31G32
+        J02J03J04J07R01R02R03R04R05R06R07R08R09R10R11R12R13
+        R14R15R17R18R19R20R21R22R23R24  0  0  0  0  0  0  0
++        17 16 17 16 16  9  9  9  9  9  9  9  8  9  9  7  7
++         7  7  7  7  7  7  7  7  7  7  7  7  7  7  7  7  8
++         8  8  7  7  7  7  7  7  0 17  4  5  4  4  4  4  4
++         4  4  4  4  4  5  4  6  4  4  4  5  4  4  4  4  4
++         4  5  4  4  7  4  4  3  4  4  3  4  3  4  4  4  4
++         4  4  4  5  4  4  4  4  4  3  3  4  5  4  4  4  4
++         8  9  9 17  7  6  6  6  6 15  6  6  6 15  6  6  7
++         6  6  6  6  7  7  5 12 15  6  0  0  0  0  0  0  0
%c M  cc GPS ccc cccc cccc cccc cccc ccccc ccccc ccccc ccccc
%c cc cc ccc ccc cccc cccc cccc cccc ccccc ccccc ccccc ccccc
%f  0.0000000  0.000000000  0.00000000000  0.000000000000000
%f  0.0000000  0.000000000  0.00000000000  0.000000000000000
%i    0    0    0    0      0      0      0      0         0
%i    0    0    0    0      0      0      0      0         0
/* INFORMATION & ANALYSIS CENTER (IAC)            RAPID DATA
/* S/V CLOCKS ARE ALIGNED TO GNSS TIME                      
/* G:C1WC2W R:C1PC2P E:C1XC5X C:C2IC6I J:C1CC2S             
/* PCV:IGS14_2218 OL/AL:FES2004  NONE     YN ORB:CoN CLK:CoN
*  2022 10 08 22 45  0.00000000
PC01 -34280.443561  24516.660386    729.606443    746.272207
PC02   4184.300379  41919.892711      6.772189    420.223730
PC03 -14828.400302  39442.539080    764.427894   -291.583398
PC04 -39572.668161  14468.366579    480.773882    -72.743883
PC05  21886.986270  35992.189929   -304.398142   -160.538361
PC06 -13987.107547  23856.921194 -31887.720916    900.900554
PC07 -13408.022809  39874.688736    864.810631   -250.120021
PC08    845.867400  30036.983660  29656.076408    490.201401
PC09  -3370.917769  24271.909776 -33982.510983   -840.355146
PC10  -7160.406584  40576.369665   7884.600200     86.352040
PC11  25818.123057  -8371.458976  -6507.078572   -362.646687
PC12  25560.512721   2961.104726  10870.832567   -489.481358
PC13   7551.681795  34283.106881  23702.048153    101.785020
PC14  16934.859134 -15586.642884 -15806.369498    707.975941
PC16 -18901.233274  22412.935920 -30217.677318    131.099390
PC19 -13690.129208  23009.357372   7857.812374   -832.726353
PC20 -17436.644668   7429.912768  20476.724215    868.710139
PC21  10933.146970  13761.437995 -21665.374729   -562.735725
PC22  -1863.070386  26001.240912  -9942.631727   -861.779678
PC23  -6795.780442 -23264.177104  13835.934523   -463.698492
PC24  21111.200781   5352.969064  17457.378178   -520.903253
PC25   9053.718752 -13960.256153  22394.911161      6.931899
PC26  20365.821341  18751.746830   3658.948153    -18.754364
PC27 -20078.259764  -8689.921629 -17344.765687     32.987428
PC28  -1616.069570 -15837.923212 -22914.773484     22.089487
PC29 -18593.956580  14565.983813  14853.291631     24.215667
PC30 -27494.222153   4138.792158  -2483.456929      0.404135
PC32 -10992.747491 -13797.144811  21629.506061   -767.764099
PC33  13605.835068 -23044.715191  -7934.947669   -863.367274
PC34  27436.919303  -4864.946454   1351.883005     12.443242
PC35    491.177293  16134.356752  22758.864954     33.055380
PC36  -9843.359268  13272.054885 -22461.652032   -592.899946
PC37 -19383.930643 -19907.131929  -2421.312047   -446.599406
PC38  -6861.531999  26198.227028  32381.428832     29.750705
PC39 -23008.192430  22456.862173 -27368.583594     -0.595368
PC40 -20038.958841  36899.841089  -2256.857618     -5.665224
PC41   2123.479386 -26176.303554   9475.772877   -154.294994
PC42  17371.711053  -6201.287810 -20910.423936   -438.911589
PC43  19244.806754 -14325.393722 -14247.951060     18.537925
PC44  20220.519959   8177.301129  17383.618002     75.409828
PC45   7194.136359  23300.345342 -13585.814405     -7.445010
PC46 -20486.270968  -3654.526536 -18568.778981     -5.042418
PC59      0.000000      0.000000      0.000000 999999.999999
PC60   7337.008929  41495.650863   1445.980833     -0.939794
PE01  12535.125694  23983.413272  12008.315384   -543.107330
PE02 -12613.019010 -23848.969749 -12154.107567    329.563667
PE03 -12015.521799 -12134.357612  24168.162378   -607.814741
PE04  24004.673300  -5039.062097 -16569.703392  -1132.505430
PE05   7303.555144 -22552.110832  17722.539166   -136.389860
PE07 -22063.674306  19697.303706  -1087.284754   -711.714292
PE08 -23938.261345   5229.228482  16594.047263   -612.151979
PE09  22100.447929 -19678.761933    932.547451   -686.454311
PE10  25292.472319  -1593.152327 -15315.434614   -482.332245
PE11  17669.616717  -8882.829270 -22033.645545   1877.127812
PE12  28312.518285   5433.021742  -6704.024675   -211.855555
PE13 -18366.847925   8320.001038  21670.599590    430.667205
PE14 -23106.538592   -821.971179 -15493.933141     22.231796
PE15 -28339.886872  -5549.438438   6486.830078    715.304066
PE18  26424.965611 -13709.610878   2190.556958   -883.957938
PE19   9531.221853  14042.694802 -24252.535382  -4317.822127
PE21   1576.340723  29094.484814  -5221.424534   -762.320716
PE24  11781.547368 -16988.830397  21169.190449   -880.600063
PE25  -1351.981756 -29046.610032   5532.602065   -589.699067
PE26   3191.053631  17522.537427  23647.476771  -1704.889853
PE27 -11140.429933  17997.940850 -20686.139495   -410.795654
PE30 -17251.081850  -4576.596625 -23613.083228   -900.750892
PE31  17190.269299   3595.874779  23841.369028   -505.305155
PE33  21529.469323  16065.862141  12438.538833   -454.514374
PE34 -21671.601949 -15970.505378 -12291.585569     -8.493611
PE36  -2268.171638 -17173.924302 -23999.706646   -443.068853
PG01 -21815.872186 -14527.341746  -5613.937948    270.668521
PG02  19936.727571  14692.017570  10024.453013   -643.124702
PG03 -11698.299334 -18789.940578  14638.328445   -362.225559
PG04 -15192.267922  -7199.692925  20588.488384   -106.633409
PG05   6812.424146  25181.586848  -4797.483852    -99.657844
PG06 -10851.279379  10767.417226  21790.008919    485.544595
PG07 -24816.816420  -4890.954369  -8454.547612    300.593956
PG08  -6278.869309 -14114.289757 -21611.595319    -87.992376
PG09 -22059.363692   3734.141590  14268.537277   -285.802340
PG10  11820.377836 -13589.300930 -19259.032776     -6.682670
PG11    972.054061  16695.016226  20644.499759    -23.743054
PG12  10276.436550  19751.405300  14293.783878   -289.987897
PG13  -3323.441426  17237.233814 -20046.418706    402.468647
PG14 -13489.106991  11440.922751 -19772.117125    -96.938126
PG15   8461.338307  13893.406864 -21412.020746    -22.498119
PG16    369.454370 -26288.877473    651.666872   -525.900868
PG17 -22994.951428  13258.573092  -1188.507139    666.895111
PG18  24172.907862   3720.609714 -10535.688672     21.422076
PG19 -18554.333732  16774.970198   8305.990731    221.244353
PG20   -458.864642  24997.995139   9306.550720    479.950412
PG21 -17369.821570 -15690.712644 -12613.226196    158.322403
PG22  15695.182805 -18363.517040  11256.605051    342.183207
PG23  14872.682944  -2066.690661 -21916.423555     -0.859020
PG24  20124.175998  14948.362917  -9712.545252    107.077928
PG25  15078.709967   8256.306584  20025.343770    380.388974
PG26   4765.517564 -23384.781222  11217.826981    231.727169
PG27   6057.303739 -19019.727755 -17534.738074    201.073194
PG28  -9589.483604  20300.001351 -13876.384576    331.299717
PG29  21710.265203  -1041.889851  15278.463213   -558.109205
PG30 -19541.482286   4837.649940 -17358.910284   -537.227035
PG31  10487.761013 -11666.307129  21333.030531   -196.126441
PG32  21085.983378 -15953.941870    902.683963   -257.384080
PJ02 -19913.315566  27725.090066 -20209.666805     -6.777047
PJ03 -30033.935119  24347.754454  21858.158110     -2.620168
PJ04 -29545.086029  28394.393914  16166.023598    111.700006
PJ07 -25345.586447  33698.033324    -49.353958     -0.152315
PR01  10971.219239   2788.581368 -22865.183728     15.956542
PR02  15882.412960 -14988.767131 -13086.778330    -22.915092
PR03  10851.180895 -22710.041866   3976.987990     65.136154
PR04    175.177737 -17538.302184  18534.813824    160.475302
PR05 -10746.928273  -2859.639195  22961.773796    100.930449
PR06 -15408.858517  16309.703509  12142.536773    -73.988000
PR07 -10570.685466  22775.638239  -4621.677373     42.248491
PR08      5.522325  17543.333609 -18482.364137    -67.552620
PR09 -11016.699411   3533.554987 -22717.753415     80.993387
PR10   -321.306411  17076.930284 -18978.771340    -86.728617
PR11  11448.518216  22465.444459  -3797.834415     25.104779
PR12  16064.632743  13682.723384  14373.058680     21.866089
PR13  11560.040939  -1882.749430  22649.900728    -27.616072
PR14   -660.072632 -18118.697204  17967.080210     24.220543
PR15 -11658.917290 -22515.844595   2831.397899     93.317536
PR17   9383.515025  -9784.120409 -21608.781803    567.450823
PR18  -9070.853796  -9834.980415 -21710.250919     46.195324
PR19 -21905.709077  -5985.587728 -11602.557077   -206.565598
PR20 -23775.475965   2952.633903   8810.143433    -79.853411
PR21  -7656.265561   9923.643305  22211.248542   -340.032598
PR22   9365.790469  10491.662568  21306.222160     14.105786
PR23  24394.141760   3378.932194   6655.018781    -57.788440
PR24  23399.824819  -4086.951973  -9311.106886    119.208545
EOF
